#dP2019  8  1  0  0  0.00000000      96 __u+U ITR00 FIT  IAC
## 2064 345600.00000000   900.00000000 58696 0.0000000000000
+   99   C01C03C04C05C06C07C08C09C10C11C12C13C14C16E01E02E03
+        E04E05E07E08E09E11E12E13E14E15E18E19E21E24E25E26E27
+        E30E31E33E36G01G02G03G04G05G06G07G08G09G10G11G12G13
+        G14G15G16G17G18G19G20G21G22G23G24G25G26G27G28G29G30
+        G31G32J01J02J03J07R01R02R03R04R05R06R07R08R09R10R11
+        R12R13R14R15R16R17R18R19R20R21R22R23R24R26  0  0  0
++        13 13 13 13  9  9  9  8  8  8  8  8  7  9  5  5  5
++         5  5  5  5  5  5  5  5  5  5  5  5  5  5  6  5  5
++         5  5  5  5  3  3  3  4  3  3  3  3  3  3  3  3  3
++         3  3  3  3  3  3  3  3  3  3  3  3  3  3  3  3  3
++         3  3  9  8  9 13  5  5  5  5  5 10  5  5  5  5  5
++         5  6  5  5  6  5  5  6  6  5  6  5  6  8  0  0  0
%c M  cc GPS ccc cccc cccc cccc cccc ccccc ccccc ccccc ccccc
%c cc cc ccc ccc cccc cccc cccc cccc ccccc ccccc ccccc ccccc
%f  0.0000000  0.000000000  0.00000000000  0.000000000000000
%f  0.0000000  0.000000000  0.00000000000  0.000000000000000
%i    0    0    0    0      0      0      0      0         0
%i    0    0    0    0      0      0      0      0         0
/* INFORMATION & ANALYSIS CENTER (IAC) OF MCC   (RAPID DATA)
/* S/V CLOCKS ARE ALIGNED TO GPS & GLONASS TIME RESPECTIVELY
/* USING THE BROADCAST EPHEMERIS                            
/* PCV:IGS14_2056 OL/AL:FES2004  NONE     YN ORB:CoN CLK:CoN
*  2019 08 01  0 45  0.00000000
PC01 -32303.448189  27063.448799   1010.553764    201.148393
PC03 -14796.127206  39458.503555    300.628568    883.032011
PC04 -39592.824949  14466.631741    613.236901    758.247906
PC05  21842.335830  36026.395102   -807.933688   -463.154125
PC06  -7008.854561  25951.743335 -32066.895373    506.797029
PC07 -22455.165324  26731.868474  23457.190282    -37.743166
PC08 -15010.995837  38745.603626   8104.256162    167.774807
PC09   5781.784495  33101.996549 -25016.865009   -143.969899
PC10  -7812.514555  27872.972195  30687.154701    -39.339174
PC11 -14966.613253 -21972.772748   8423.333982    238.162796
PC12   3004.611491 -21829.104251 -17013.434450    923.549328
PC13  -6865.967591  41488.187878  -4530.348291   -880.819117
PC14  -9979.467648 -15818.037138  20787.990039    518.286999
PC16  -4801.975881  26832.467548 -32089.735483   -882.024641
PE01 -24506.331557  16311.878991   3033.135911   -659.032147
PE02  24486.632511 -16342.570898  -3086.958475     71.859220
PE03  17929.403807  -7825.898127  22225.105927   -194.525303
PE04   1458.643587  19276.380524 -22406.978021   -335.063507
PE05  26952.142583   8306.418207   9003.760772   -461.490483
PE07 -20159.122170 -19509.337881   9434.173281   -237.424656
PE08  -1779.446702 -19186.031334  22473.704329   6314.962154
PE09  20401.371908  19284.415114  -9404.683477   6361.622373
PE11   9966.200616  23637.464550 -14766.706237   5638.320100
PE12  -2449.868165  29221.977711   3968.171279   6270.475111
PE13  -9954.035210 -23700.875247  14676.780286    390.777736
PE14 -18873.788746  -5894.226418  13927.005041   -664.269861
PE15   2064.935430 -29304.936717  -3628.463115    901.080256
PE18  21946.786322  -2741.744143 -23468.056764   -759.456850
PE19 -19379.909510   6197.778998 -21488.964609     -4.832810
PE21 -25179.223380   2821.122376 -15293.437329   -547.105219
PE24  11205.754718  12312.230042  24466.489252   5947.687715
PE25  25166.666771  -2769.002300  15352.831092   1724.980991
PE26 -16314.989321  -4204.515909  24334.053713   4275.813469
PE27 -11018.268573 -12362.725149 -24528.080714    417.472991
PE30   9498.819861 -20216.845719 -19428.261263   4665.356996
PE31  -9545.047369  20251.992900  19364.822993   -466.963624
PE33 -12907.270614  17751.586995  19858.488291   -469.833518
PE36  16175.261592   4179.767293 -24435.148491    680.480313
PG01 -13881.943712  20328.503157   9343.178410    -83.348020
PG02  15530.613467   -698.079610 -20911.878761   -272.851731
PG03 -18815.138781  13079.337635 -13401.621533    177.605523
PG04 -22126.572715 -11790.925411   9263.790235     44.401907
PG05  26066.853723  -1723.355186  -5504.642910     -0.309455
PG06   8978.442438  15147.740703 -19833.924478    -11.008963
PG07  -5368.766797  25300.508769   5047.710248    -75.888321
PG08 -15262.103523   4779.090731  21270.498642     -0.937265
PG09   2971.312559  20773.876956 -16315.294880    358.248285
PG10 -11060.741971 -12525.196749  20753.628733    -35.950992
PG11 -10250.536525  18386.773034  15822.785435   -546.949925
PG12  21602.721626 -10374.179698 -11484.808410    218.472100
PG13  18796.570760   6268.070384  17605.843210    -51.912921
PG14 -18506.144919 -18144.651331  -5908.285873    -68.807779
PG15  15258.612756  -6665.454463  20486.263697   -297.192695
PG16 -26144.221223  -1243.865827  -5901.574749    -61.050358
PG17  15198.237507  21781.282680   2016.987051     98.672332
PG18 -15719.117627  13615.344924  15951.090159     74.339343
PG19  17760.822075  19070.132673  -5299.921395   -286.858211
PG20  -1162.849007 -16039.602298  21017.599011    526.244882
PG21   -228.489286 -25085.711260   9770.442297   -144.447226
PG22 -23335.417252  10955.725549  -5972.353629   -738.352810
PG23  -9283.980800  12569.819183 -21103.693396   -174.484528
PG24  14418.626724 -18565.261568  11875.888464     -0.163597
PG25   9079.242602 -15475.239244 -19712.024782     -4.674772
PG26 -21298.468389  -6111.360777 -14793.850060      4.287963
PG27 -20466.696302  -8260.885326  14878.265537    -10.475420
PG28   9712.021679  13381.257544  21369.506137    765.581838
PG29    997.091526 -19024.509992 -18536.866090    136.793627
PG30   2501.290713  22162.607968  14305.034631    -10.418642
PG31 -10277.588686 -13330.657334 -20440.580663     20.453492
PG32 -16477.152216 -20829.773417   1963.144167      1.658439
PJ01 -31343.497899  16559.217272 -18129.704809   -265.185456
PJ02 -28894.240438  30656.410380   3578.973373     -1.800172
PJ03 -24999.849367  23755.736980  29356.401452     -0.215238
PJ07 -25399.485562  33653.519059    -25.073278     -0.030859
PR01   8943.538529  -8579.173689  22301.811447     47.520065
PR02 -12752.070484 -12980.933691  17941.928128    381.075392
PR03 -23832.204105  -8803.727798   2570.546368     -0.768103
PR04 -20788.563074    825.154998 -14750.929167    315.962305
PR05  -6431.417583   9235.833407 -22879.642469     32.981965
PR06  13754.246459  12771.938286 -17268.008905    159.176943
PR07  23940.131434   8530.523192  -1907.223080    -24.312030
PR08  21188.183862   -410.807478  14245.597955     16.439935
PR09   2516.980801  12335.953479  22189.520720     83.039079
PR10  14181.376160    530.824599  21203.375307     55.684074
PR11  20274.670125 -13475.144461   7727.887929    -74.513906
PR12  14457.632356 -18983.334057  -8965.616776     48.758843
PR13   -400.064007 -13592.090627 -21596.568117    -26.596855
PR14 -14388.978072   -473.741769 -21035.490125     41.503122
PR15 -20234.340848  12958.397655  -8529.258165    103.355348
PR16 -14032.462383  19325.251051   9095.896972      6.778816
PR17 -11467.150078 -13931.512272  18012.925359    248.228859
PR18  -9906.558439   3902.370457  23184.411955      2.238876
PR19  -3503.938229  19610.641769  15928.800482    -45.517408
PR20   5781.669120  24711.405739  -2341.392806   -386.035398
PR21  11468.006096  13365.045776 -18472.506358    -63.212580
PR22   9015.224325  -7057.771560 -22810.164532    -31.009697
PR23    401.519214 -22844.802323 -11353.412322    244.303004
PR24  -7035.605416 -24152.951119   4225.723017   -183.204334
PR26   4942.176723  25027.451756    813.304983    -13.481929
EOF
